NORAD_CAT_ID,OBJECT_NAME,OBJECT_TYPE,EPOCH,MEAN_MOTION,ECCENTRICITY,INCLINATION,RA_OF_ASC_NODE,ARG_OF_PERICENTER,MEAN_ANOMALY,BSTAR,MEAN_MOTION_DOT,MEAN_MOTION_DDOT,TLE_LINE0,TLE_LINE1,TLE_LINE2,SEMIMAJOR_AXIS,PERIOD,APOGEE,PERIGEE,DECAYED
50173.0,STARLINK-3289,PAYLOAD,2023-04-12 12:05:13,15.08827718,0.0001117,53.2173,327.5245,98.4475,261.6644,4.6428e-05,4.51e-06,0.0,0 STARLINK-3289,1 50173U 21125T   23102.50363058  .00000451  00000-0  46428-4 0  9993,2 50173  53.2173 327.5245 0001117  98.4475 261.6644 15.08827718 73303,6917.918,95.438,540.556,539.01,0.0
50173.0,STARLINK-3289,PAYLOAD,2023-04-12 13:40:36,15.08827654,0.0001112,53.2172,327.2274,100.2796,259.8322,3.9415e-05,3.39e-06,0.0,0 STARLINK-3289,1 50173U 21125T   23102.56987078  .00000339  00000-0  39415-4 0  9996,2 50173  53.2172 327.2274 0001112 100.2796 259.8322 15.08827654 76409,6917.918,95.438,540.552,539.014,0.0
50173.0,STARLINK-3289,PAYLOAD,2023-04-13 02:23:41,15.08840257,0.0001076,53.2169,324.8489,91.3939,268.7177,0.00014535,2.026e-05,0.0,0 STARLINK-3289,1 50173U 21125T   23103.09978392  .00002026  00000-0  14535-3 0  9994,2 50173  53.2169 324.8489 0001076  91.3939 268.7177 15.08840257 76483,6917.88,95.438,540.489,539.0,0.0
50173.0,STARLINK-3289,PAYLOAD,2023-04-14 11:46:47,15.08841843,0.0001088,53.2165,318.6041,92.6031,267.5085,0.0001398,1.938e-05,0.0,0 STARLINK-3289,1 50173U 21125T   23104.49082894  .00001938  00000-0  13980-3 0  9996,2 50173  53.2165 318.6041 0001088  92.6031 267.5085 15.08841843 76694,6917.875,95.437,540.492,538.987,0.0
50173.0,STARLINK-3289,PAYLOAD,2023-04-14 14:57:33,15.08840311,0.0001134,53.2164,318.0096,91.8697,268.2425,5.402e-05,5.72e-06,0.0,0 STARLINK-3289,1 50173U 21125T   23104.62330925  .00000572  00000-0  54020-4 0  9996,2 50173  53.2164 318.0096 0001134  91.8697 268.2425 15.08840311 73623,6917.879,95.438,540.529,538.96,0.0
50173.0,STARLINK-3289,PAYLOAD,2023-04-15 02:05:15,15.088574,0.0001122,53.2162,315.9278,88.5536,271.5585,0.00048139,7.385e-05,0.0,0 STARLINK-3289,1 50173U 21125T   23105.08698307  .00007385  00000-0  48139-3 0  9990,2 50173  53.2162 315.9278 0001122  88.5536 271.5585 15.08857400 73699,6917.827,95.436,540.468,538.916,0.0
50173.0,STARLINK-3289,PAYLOAD,2023-04-15 13:12:57,15.08837875,0.000117,53.2158,313.8464,101.9808,258.1315,0.00043249,6.601e-05,0.0,0 STARLINK-3289,1 50173U 21125T   23105.55067009  .00006601  00000-0  43249-3 0  9998,2 50173  53.2158 313.8464 0001170 101.9808 258.1315 15.08837875 73767,6917.887,95.438,540.561,538.942,0.0
50173.0,STARLINK-3289,PAYLOAD,2023-04-15 21:09:53,15.08847769,0.0001084,53.2156,312.3601,99.528,260.5834,0.0015358,0.00024244,0.0,0 STARLINK-3289,1 50173U 21125T   23105.88187036  .00024244  00000-0  15358-2 0  9999,2 50173  53.2156 312.3601 0001084  99.5280 260.5834 15.08847769 76907,6917.857,95.437,540.472,538.972,0.0
50173.0,STARLINK-3289,PAYLOAD,2023-04-16 14:39:08,15.08844753,0.0001123,53.2151,309.0888,109.4798,250.6315,0.00096632,0.00015126,0.0,0 STARLINK-3289,1 50173U 21125T   23106.61051256  .00015126  00000-0  96632-3 0  9999,2 50173  53.2151 309.0888 0001123 109.4798 250.6315 15.08844753 77018,6917.866,95.437,540.508,538.954,0.0
50173.0,STARLINK-3289,PAYLOAD,2023-04-16 21:00:40,15.08854642,0.0001045,53.2151,307.8997,106.4564,253.6543,0.0015941,0.00025183,0.0,0 STARLINK-3289,1 50173U 21125T   23106.87547115  .00025183  00000-0  15941-2 0  9998,2 50173  53.2151 307.8997 0001045 106.4564 253.6543 15.08854642 77054,6917.836,95.437,540.424,538.978,0.0
50173.0,STARLINK-3289,PAYLOAD,2023-04-17 12:54:32,15.08842988,0.0001074,53.2149,304.9254,117.907,242.2031,0.00071047,0.00011038,0.0,0 STARLINK-3289,1 50173U 21125T   23107.53787298  .00011038  00000-0  71047-3 0  9994,2 50173  53.2149 304.9254 0001074 117.9070 242.2031 15.08842988 74060,6917.871,95.437,540.479,538.993,0.0
50173.0,STARLINK-3289,PAYLOAD,2023-04-17 20:51:27,15.08852273,0.0001083,53.2147,303.4388,91.1568,268.9548,0.0013884,0.00021885,0.0,0 STARLINK-3289,1 50173U 21125T   23107.86907387  .00021885  00000-0  13884-2 0  9998,2 50173  53.2147 303.4388 0001083  91.1568 268.9548 15.08852273 77200,6917.843,95.437,540.457,538.959,0.0
50173.0,STARLINK-3289,PAYLOAD,2023-04-18 19:06:52,15.08855034,0.0001477,53.2147,299.2754,81.2286,278.8873,0.0013586,0.00021409,0.0,0 STARLINK-3289,1 50173U 21125T   23108.79643663  .00021409  00000-0  13586-2 0  9996,2 50173  53.2147 299.2754 0001477  81.2286 278.8873 15.08855034 77347,6917.834,95.437,540.721,538.678,0.0
50173.0,STARLINK-3289,PAYLOAD,2023-04-19 12:36:06,15.08845948,0.0001019,53.2146,296.0041,84.9625,275.1483,0.00066076,0.00010245,0.0,0 STARLINK-3289,1 50173U 21125T   23109.52507482  .00010245  00000-0  66076-3 0  9995,2 50173  53.2146 296.0041 0001019  84.9625 275.1483 15.08845948 77451,6917.862,95.437,540.432,539.022,0.0
50173.0,STARLINK-3289,PAYLOAD,2023-04-19 18:57:38,15.08852836,0.0001106,53.2145,294.8145,85.8734,274.2384,0.0007361,0.00011451,0.0,0 STARLINK-3289,1 50173U 21125T   23109.79003319  .00011451  00000-0  73610-3 0  9996,2 50173  53.2145 294.8145 0001106  85.8734 274.2384 15.08852836 77497,6917.841,95.437,540.471,538.941,0.0
50173.0,STARLINK-3289,PAYLOAD,2023-04-20 12:26:53,15.08847312,0.000117,53.2158,291.5436,83.854,276.2585,0.00032352,4.866e-05,0.0,0 STARLINK-3289,1 50173U 21125T   23110.51867376  .00004866  00000-0  32352-3 0  9999,2 50173  53.2158 291.5436 0001170  83.8540 276.2585 15.08847312 77603,6917.858,95.437,540.532,538.914,0.0
50173.0,STARLINK-3289,PAYLOAD,2023-04-20 15:37:39,15.08842838,0.0001129,53.2148,290.9454,91.8857,268.2264,0.00025714,3.807e-05,0.0,0 STARLINK-3289,1 50173U 21125T   23110.65115369  .00003807  00000-0  25714-3 0  9990,2 50173  53.2148 290.9454 0001129  91.8857 268.2264 15.08842838 77624,6917.872,95.437,540.518,538.956,0.0
50173.0,STARLINK-3289,PAYLOAD,2023-04-21 12:17:40,15.0883798,0.000127,53.2153,287.0814,97.4007,262.713,1.7308e-05,-1.2e-07,0.0,0 STARLINK-3289,1 50173U 21125T   23111.51227588 -.00000012  00000-0  17308-4 0  9990,2 50173  53.2153 287.0814 0001270  97.4007 262.7130 15.08837980 77750,6917.887,95.438,540.63,538.873,0.0
50173.0,STARLINK-3289,PAYLOAD,2023-04-21 17:03:49,15.08840451,0.0001268,53.2154,286.1899,100.2911,259.8224,6.9017e-05,8.11e-06,0.0,0 STARLINK-3289,1 50173U 21125T   23111.71099537  .00000811  00000-0  69017-4 0  9993,2 50173  53.2154 286.1899 0001268 100.2911 259.8224 15.08840451 77789,6917.879,95.438,540.621,538.867,0.0
50173.0,STARLINK-3289,PAYLOAD,2023-04-22 18:30:00,15.08842045,0.0001182,53.216,281.4324,95.05,265.0627,0.00012256,1.663e-05,0.0,0 STARLINK-3289,1 50173U 21125T   23112.77083495  .00001663  00000-0  12256-3 0  9994,2 50173  53.2160 281.4324 0001182  95.0500 265.0627 15.08842045 74859,6917.874,95.437,540.557,538.921,0.0
50173.0,STARLINK-3289,PAYLOAD,2023-04-23 11:59:15,15.08835797,0.0001092,53.2163,278.1624,92.815,267.2967,0.00011329,1.515e-05,0.0,0 STARLINK-3289,1 50173U 21125T   23113.49947951  .00001515  00000-0  11329-3 0  9996,2 50173  53.2163 278.1624 0001092  92.8150 267.2967 15.08835797 74963,6917.893,95.438,540.514,539.003,0.0
50173.0,STARLINK-3289,PAYLOAD,2023-04-23 16:45:24,15.08851447,9.64e-05,53.2161,277.2698,93.7449,266.3653,0.00030341,4.546e-05,0.0,0 STARLINK-3289,1 50173U 21125T   23113.69819450  .00004546  00000-0  30341-3 0  9992,2 50173  53.2161 277.2698 0000964  93.7449 266.3653 15.08851447 74995,6917.845,95.437,540.377,539.044,0.0
50173.0,STARLINK-3289,PAYLOAD,2023-04-24 11:49:59,15.08880164,0.0001296,53.2166,273.7034,83.2776,276.8363,0.00071944,0.00011193,0.0,0 STARLINK-3289,1 50173U 21125T   23114.49305446  .00011193  00000-0  71944-3 0  9996,2 50173  53.2166 273.7034 0001296  83.2776 276.8363 15.08880164 75118,6917.758,95.435,540.519,538.726,0.0
50173.0,STARLINK-3289,PAYLOAD,2023-04-24 16:36:10,15.08844309,0.0001392,53.2169,272.8104,77.8954,282.2194,7.8141e-06,-1.64e-06,0.0,0 STARLINK-3289,1 50173U 21125T   23114.69178735 -.00000164  00000-0  78141-5 0  9992,2 50173  53.2169 272.8104 0001392  77.8954 282.2194 15.08844309 75140,6917.867,95.437,540.695,538.769,0.0
50173.0,STARLINK-3289,PAYLOAD,2023-04-25 10:05:27,15.08801776,5.81e-05,53.2158,269.5368,62.436,297.6691,-0.0005906,-9.665e-05,0.0,0 STARLINK-3289,1 50173U 21125T   23115.42045461 -.00009665  00000-0 -59060-3 0  9996,2 50173  53.2158 269.5368 0000581  62.4360 297.6691 15.08801776 75258,6917.997,95.44,540.264,539.46,0.0
50173.0,STARLINK-3289,PAYLOAD,2023-04-26 09:56:15,15.08811496,0.0001844,53.2203,265.0826,78.3447,281.7752,-0.00020028,-3.472e-05,0.0,0 STARLINK-3289,1 50173U 21125T   23116.41407381 -.00003472  00000-0 -20028-3 0  9991,2 50173  53.2203 265.0826 0001844  78.3447 281.7752 15.08811496 78495,6917.968,95.439,541.108,538.557,0.0
50173.0,STARLINK-3289,PAYLOAD,2023-04-26 16:17:47,15.08851313,0.000139,53.2202,263.8922,67.3871,292.7268,0.0002295,3.368e-05,0.0,0 STARLINK-3289,1 50173U 21125T   23116.67901636  .00003368  00000-0  22950-3 0  9999,2 50173  53.2202 263.8922 0001390  67.3871 292.7268 15.08851313 78533,6917.846,95.437,540.672,538.749,0.0
50173.0,STARLINK-3289,PAYLOAD,2023-04-27 09:47:01,15.0885349,0.0001445,53.2168,260.618,74.2033,285.9118,0.00053109,8.178e-05,0.0,0 STARLINK-3289,1 50173U 21125T   23117.40765748  .00008178  00000-0  53109-3 0  9997,2 50173  53.2168 260.6180 0001445  74.2033 285.9118 15.08853490 78641,6917.839,95.437,540.704,538.705,0.0
50173.0,STARLINK-3289,PAYLOAD,2023-04-27 19:19:24,15.0879809,0.000198,53.2145,258.8319,64.5478,295.5719,0.0029375,0.00046719,0.0,0 STARLINK-3289,1 50173U 21125T   23117.80514034  .00046719  00000-0  29375-2 0  9991,2 50173  53.2145 258.8319 0001980  64.5478 295.5719 15.08798090 75610,6918.008,95.44,541.243,538.504,0.0
50173.0,STARLINK-3289,PAYLOAD,2023-04-28 09:37:48,15.08854557,0.0001828,53.2144,256.1565,94.3268,265.7933,-0.00010922,-2.027e-05,0.0,0 STARLINK-3289,1 50173U 21125T   23118.40125070 -.00002027  00000-0 -10922-3 0  9991,2 50173  53.2144 256.1565 0001828  94.3268 265.7933 15.08854557 75700,6917.836,95.437,540.965,538.436,0.0
